{"type": "FeatureCollection", "features": [ {"type": "Feature", "properties": {"norad_id": 30173, "name": "FENGYUN 1C DEB", "group": "fengyun-1c-debris", "lat": -2.8596811320212163, "lon": 67.15917622846476, "alt_km": 862.054613872956, "timestamp": "2025-12-21T22:41:41.734390+00:00", "meta": {"OBJECT_NAME": "FENGYUN 1C DEB", "OBJECT_ID": "1999-025UE", "EPOCH": "2025-12-20T04:29:11.341248", "MEAN_MOTION": 14.1142324, "ECCENTRICITY": 0.00810502, "INCLINATION": 98.9763, "RA_OF_ASC_NODE": 64.9484, "ARG_OF_PERICENTER": 267.4939, "MEAN_ANOMALY": 157.64, "EPHEMERIS_TYPE": 0, "CLASSIFICATION_TYPE": "U", "NORAD_CAT_ID": 30173, "ELEMENT_SET_NO": 999, "REV_AT_EPOCH": 96654, "BSTAR": 0.0010297801, "MEAN_MOTION_DOT": 1.878e-05, "MEAN_MOTION_DDOT": 0}, "tle": {"line1": "1 30173U 99025UE  25354.18693682  .00001878  00000+0  10298-2 0  9996", "line2": "2 30173  98.9763  64.9484 0081050 267.4939 157.6400 14.11423240966542"}}, "geometry": {"type": "Point", "coordinates": [67.15917622846476, -2.8596811320212163]}}, {"type": "Feature", "properties": {"norad_id": 30174, "name": "FENGYUN 1C DEB", "group": "fengyun-1c-debris", "lat": 18.732867890681426, "lon": -31.349711343463422, "alt_km": 635.4380084933182, "timestamp": "2025-12-21T22:41:41.734400+00:00", "meta": {"OBJECT_NAME": "FENGYUN 1C DEB", "OBJECT_ID": "1999-025UF", "EPOCH": "2025-12-21T09:14:26.291328", "MEAN_MOTION": 14.81525189, "ECCENTRICITY": 0.00185816, "INCLINATION": 98.7757, "RA_OF_ASC_NODE": 145.0338, "ARG_OF_PERICENTER": 16.9877, "MEAN_ANOMALY": 35.6376, "EPHEMERIS_TYPE": 0, "CLASSIFICATION_TYPE": "U", "NORAD_CAT_ID": 30174, "ELEMENT_SET_NO": 999, "REV_AT_EPOCH": 98496, "BSTAR": 0.0033351623, "MEAN_MOTION_DOT": 0.00026271, "MEAN_MOTION_DDOT": 0}, "tle": {"line1": "1 30174U 99025UF  25355.38502652  .00026271  00000+0  33352-2 0  9996", "line2": "2 30174  98.7757 145.0338 0018581  16.9877  35.6376 14.81525189984965"}}, "geometry": {"type": "Point", "coordinates": [-31.349711343463422, 18.732867890681426]}}, {"type": "Feature", "properties": {"norad_id": 30175, "name": "FENGYUN 1C DEB", "group": "fengyun-1c-debris", "lat": -70.27644609914678, "lon": -155.45668524552184, "alt_km": 909.5472881783408, "timestamp": "2025-12-21T22:41:41.734410+00:00", "meta": {"OBJECT_NAME": "FENGYUN 1C DEB", "OBJECT_ID": "1999-025UG", "EPOCH": "2025-12-21T02:44:43.301184", "MEAN_MOTION": 13.83874636, "ECCENTRICITY": 0.01466073, "INCLINATION": 99.38, "RA_OF_ASC_NODE": 51.1685, "ARG_OF_PERICENTER": 190.4355, "MEAN_ANOMALY": 241.6477, "EPHEMERIS_TYPE": 0, "CLASSIFICATION_TYPE": "U", "NORAD_CAT_ID": 30175, "ELEMENT_SET_NO": 999, "REV_AT_EPOCH": 95456, "BSTAR": 0.00030303541, "MEAN_MOTION_DOT": 3.2e-06, "MEAN_MOTION_DDOT": 0}, "tle": {"line1": "1 30175U 99025UG  25355.11439006  .00000320  00000+0  30304-3 0  9992", "line2": "2 30175  99.3800  51.1685 0146607 190.4355 241.6477 13.83874636954563"}}, "geometry": {"type": "Point", "coordinates": [-155.45668524552184, -70.27644609914678]}}, {"type": "Feature", "properties": {"norad_id": 30177, "name": "FENGYUN 1C DEB", "group": "fengyun-1c-debris", "lat": 70.43171679957358, "lon": -86.70951979956425, "alt_km": 762.1971679615372, "timestamp": "2025-12-21T22:41:41.734420+00:00", "meta": {"OBJECT_NAME": "FENGYUN 1C DEB", "OBJECT_ID": "1999-025UJ", "EPOCH": "2025-12-21T14:22:01.557696", "MEAN_MOTION": 13.62836366, "ECCENTRICITY": 0.04520446, "INCLINATION": 98.6275, "RA_OF_ASC_NODE": 298.2658, "ARG_OF_PERICENTER": 115.0327, "MEAN_ANOMALY": 59.2256, "EPHEMERIS_TYPE": 0, "CLASSIFICATION_TYPE": "U", "NORAD_CAT_ID": 30177, "ELEMENT_SET_NO": 999, "REV_AT_EPOCH": 93583, "BSTAR": 0.00080320898, "MEAN_MOTION_DOT": 1.218e-05, "MEAN_MOTION_DDOT": 0}, "tle": {"line1": "1 30177U 99025UJ  25355.59862914  .00001218  00000+0  80321-3 0  9995", "line2": "2 30177  98.6275 298.2658 0452044 115.0327  59.2256 13.62836366935836"}}, "geometry": {"type": "Point", "coordinates": [-86.70951979956425, 70.43171679957358]}}, {"type": "Feature", "properties": {"norad_id": 30178, "name": "FENGYUN 1C DEB", "group": "fengyun-1c-debris", "lat": -14.232404705019679, "lon": 48.49031635608071, "alt_km": 1033.3017890428237, "timestamp": "2025-12-21T22:41:41.734430+00:00", "meta": {"OBJECT_NAME": "FENGYUN 1C DEB", "OBJECT_ID": "1999-025UK", "EPOCH": "2025-12-21T14:58:31.025280", "MEAN_MOTION": 13.58714338, "ECCENTRICITY": 0.02809577, "INCLINATION": 102.2606, "RA_OF_ASC_NODE": 231.2508, "ARG_OF_PERICENTER": 106.725, "MEAN_ANOMALY": 311.9328, "EPHEMERIS_TYPE": 0, "CLASSIFICATION_TYPE": "U", "NORAD_CAT_ID": 30178, "ELEMENT_SET_NO": 999, "REV_AT_EPOCH": 93292, "BSTAR": 0.0016856378, "MEAN_MOTION_DOT": 1.533e-05, "MEAN_MOTION_DDOT": 0}, "tle": {"line1": "1 30178U 99025UK  25355.62397020  .00001533  00000+0  16856-2 0  9992", "line2": "2 30178 102.2606 231.2508 0280957 106.7250 311.9328 13.58714338932926"}}, "geometry": {"type": "Point", "coordinates": [48.49031635608071, -14.232404705019679]}}, {"type": "Feature", "properties": {"norad_id": 30181, "name": "FENGYUN 1C DEB", "group": "fengyun-1c-debris", "lat": -24.386264744992793, "lon": 83.33457436603716, "alt_km": 770.859588306028, "timestamp": "2025-12-21T22:41:41.734441+00:00", "meta": {"OBJECT_NAME": "FENGYUN 1C DEB", "OBJECT_ID": "1999-025UN", "EPOCH": "2025-12-21T04:28:03.216576", "MEAN_MOTION": 14.29300592, "ECCENTRICITY": 0.00400564, "INCLINATION": 98.8432, "RA_OF_ASC_NODE": 78.5172, "ARG_OF_PERICENTER": 334.3296, "MEAN_ANOMALY": 55.4061, "EPHEMERIS_TYPE": 0, "CLASSIFICATION_TYPE": "U", "NORAD_CAT_ID": 30181, "ELEMENT_SET_NO": 999, "REV_AT_EPOCH": 97632, "BSTAR": 0.0010016025, "MEAN_MOTION_DOT": 2.525e-05, "MEAN_MOTION_DDOT": 0}, "tle": {"line1": "1 30181U 99025UN  25355.18614834  .00002525  00000+0  10016-2 0  9996", "line2": "2 30181  98.8432  78.5172 0040056 334.3296  55.4061 14.29300592976327"}}, "geometry": {"type": "Point", "coordinates": [83.33457436603716, -24.386264744992793]}}, {"type": "Feature", "properties": {"norad_id": 30182, "name": "FENGYUN 1C DEB", "group": "fengyun-1c-debris", "lat": -12.239980827366518, "lon": -135.20000944730597, "alt_km": 962.8960493169707, "timestamp": "2025-12-21T22:41:41.734451+00:00", "meta": {"OBJECT_NAME": "FENGYUN 1C DEB", "OBJECT_ID": "1999-025UP", "EPOCH": "2025-12-21T09:50:38.954112", "MEAN_MOTION": 13.96459647, "ECCENTRICITY": 0.00745743, "INCLINATION": 99.0643, "RA_OF_ASC_NODE": 46.2573, "ARG_OF_PERICENTER": 358.9144, "MEAN_ANOMALY": 23.2174, "EPHEMERIS_TYPE": 0, "CLASSIFICATION_TYPE": "U", "NORAD_CAT_ID": 30182, "ELEMENT_SET_NO": 999, "REV_AT_EPOCH": 96429, "BSTAR": 4.9303918e-05, "MEAN_MOTION_DOT": 2.6e-07, "MEAN_MOTION_DDOT": 0}, "tle": {"line1": "1 30182U 99025UP  25355.41017308  .00000026  00000+0  49304-4 0  9994", "line2": "2 30182  99.0643  46.2573 0074574 358.9144  23.2174 13.96459647964298"}}, "geometry": {"type": "Point", "coordinates": [-135.20000944730597, -12.239980827366518]}}, {"type": "Feature", "properties": {"norad_id": 30183, "name": "FENGYUN 1C DEB", "group": "fengyun-1c-debris", "lat": 8.558289171288616, "lon": -140.65622779039913, "alt_km": 841.1102460909697, "timestamp": "2025-12-21T22:41:41.734462+00:00", "meta": {"OBJECT_NAME": "FENGYUN 1C DEB", "OBJECT_ID": "1999-025UQ", "EPOCH": "2025-12-21T14:06:54.006048", "MEAN_MOTION": 14.12678529, "ECCENTRICITY": 0.00263106, "INCLINATION": 98.7877, "RA_OF_ASC_NODE": 37.6592, "ARG_OF_PERICENTER": 227.6606, "MEAN_ANOMALY": 286.7257, "EPHEMERIS_TYPE": 0, "CLASSIFICATION_TYPE": "U", "NORAD_CAT_ID": 30183, "ELEMENT_SET_NO": 999, "REV_AT_EPOCH": 97268, "BSTAR": 0.00044527481, "MEAN_MOTION_DOT": 7.84e-06, "MEAN_MOTION_DDOT": 0}, "tle": {"line1": "1 30183U 99025UQ  25355.58812507  .00000784  00000+0  44527-3 0  9999", "line2": "2 30183  98.7877  37.6592 0026310 227.6606 286.7257 14.12678529972680"}}, "geometry": {"type": "Point", "coordinates": [-140.65622779039913, 8.558289171288616]}}, {"type": "Feature", "properties": {"norad_id": 30191, "name": "FENGYUN 1C DEB", "group": "fengyun-1c-debris", "lat": 77.0459562741168, "lon": -69.86599525191475, "alt_km": 675.4510622428543, "timestamp": "2025-12-21T22:41:41.734472+00:00", "meta": {"OBJECT_NAME": "FENGYUN 1C DEB", "OBJECT_ID": "1999-025UY", "EPOCH": "2025-12-21T04:29:22.252704", "MEAN_MOTION": 14.78152046, "ECCENTRICITY": 0.00971224, "INCLINATION": 98.7756, "RA_OF_ASC_NODE": 67.12, "ARG_OF_PERICENTER": 236.6527, "MEAN_ANOMALY": 149.5129, "EPHEMERIS_TYPE": 0, "CLASSIFICATION_TYPE": "U", "NORAD_CAT_ID": 30191, "ELEMENT_SET_NO": 999, "REV_AT_EPOCH": 400, "BSTAR": 0.00077178366, "MEAN_MOTION_DOT": 5.983e-05, "MEAN_MOTION_DDOT": 0}, "tle": {"line1": "1 30191U 99025UY  25355.18706311  .00005983  00000+0  77178-3 0  9993", "line2": "2 30191  98.7756  67.1200 0097122 236.6527 149.5129 14.78152046  4009"}}, "geometry": {"type": "Point", "coordinates": [-69.86599525191475, 77.0459562741168]}}, {"type": "Feature", "properties": {"norad_id": 30193, "name": "FENGYUN 1C DEB", "group": "fengyun-1c-debris", "lat": -61.639125172762945, "lon": -78.90527840755516, "alt_km": 810.3289359925284, "timestamp": "2025-12-21T22:41:41.734482+00:00", "meta": {"OBJECT_NAME": "FENGYUN 1C DEB", "OBJECT_ID": "1999-025VA", "EPOCH": "2025-12-21T12:11:52.774080", "MEAN_MOTION": 14.49161516, "ECCENTRICITY": 0.01074941, "INCLINATION": 98.7569, "RA_OF_ASC_NODE": 264.0498, "ARG_OF_PERICENTER": 106.8254, "MEAN_ANOMALY": 70.12, "EPHEMERIS_TYPE": 0, "CLASSIFICATION_TYPE": "U", "NORAD_CAT_ID": 30193, "ELEMENT_SET_NO": 999, "REV_AT_EPOCH": 99293, "BSTAR": 0.00050441348, "MEAN_MOTION_DOT": 2.014e-05, "MEAN_MOTION_DDOT": 0}, "tle": {"line1": "1 30193U 99025VA  25355.50824970  .00002014  00000+0  50441-3 0  9999", "line2": "2 30193  98.7569 264.0498 0107494 106.8254  70.1200 14.49161516992936"}}, "geometry": {"type": "Point", "coordinates": [-78.90527840755516, -61.639125172762945]}}]}